<?xml version="1.0" encoding="UTF-8"?>
<ndm xmlns:xsi="http://www.w3.org/2001/XMLSchema-instance" xsi:noNamespaceSchemaLocation="https://sanaregistry.org/r/ndmxml_unqualified/ndmxml-2.0.0-master-2.0.xsd">
<omm id="CCSDS_OMM_VERS" version="2.0">
<header><CREATION_DATE/><ORIGINATOR/></header><body><segment><metadata><OBJECT_NAME>ONEWEB-0340</OBJECT_NAME><OBJECT_ID>2021-083W</OBJECT_ID><CENTER_NAME>EARTH</CENTER_NAME><REF_FRAME>TEME</REF_FRAME><TIME_SYSTEM>UTC</TIME_SYSTEM><MEAN_ELEMENT_THEORY>SGP4</MEAN_ELEMENT_THEORY></metadata><data><meanElements><EPOCH>2024-10-24T21:00:18.599328</EPOCH><MEAN_MOTION>13.18688129</MEAN_MOTION><ECCENTRICITY>.0001442</ECCENTRICITY><INCLINATION>87.9064</INCLINATION><RA_OF_ASC_NODE>94.9183</RA_OF_ASC_NODE><ARG_OF_PERICENTER>93.0408</ARG_OF_PERICENTER><MEAN_ANOMALY>267.0889</MEAN_ANOMALY></meanElements><tleParameters><EPHEMERIS_TYPE>0</EPHEMERIS_TYPE><CLASSIFICATION_TYPE>U</CLASSIFICATION_TYPE><NORAD_CAT_ID>49206</NORAD_CAT_ID><ELEMENT_SET_NO>999</ELEMENT_SET_NO><REV_AT_EPOCH>15085</REV_AT_EPOCH><BSTAR>.13032E-3</BSTAR><MEAN_MOTION_DOT>.64E-6</MEAN_MOTION_DOT><MEAN_MOTION_DDOT>0</MEAN_MOTION_DDOT></tleParameters></data></segment></body></omm>
<omm id="CCSDS_OMM_VERS" version="2.0">
<header><CREATION_DATE/><ORIGINATOR/></header><body><segment><metadata><OBJECT_NAME>ONEWEB-0341</OBJECT_NAME><OBJECT_ID>2021-083X</OBJECT_ID><CENTER_NAME>EARTH</CENTER_NAME><REF_FRAME>TEME</REF_FRAME><TIME_SYSTEM>UTC</TIME_SYSTEM><MEAN_ELEMENT_THEORY>SGP4</MEAN_ELEMENT_THEORY></metadata><data><meanElements><EPOCH>2024-10-24T12:05:25.199232</EPOCH><MEAN_MOTION>13.18686337</MEAN_MOTION><ECCENTRICITY>.0001448</ECCENTRICITY><INCLINATION>87.9061</INCLINATION><RA_OF_ASC_NODE>95.0048</RA_OF_ASC_NODE><ARG_OF_PERICENTER>64.2351</ARG_OF_PERICENTER><MEAN_ANOMALY>295.8930</MEAN_ANOMALY></meanElements><tleParameters><EPHEMERIS_TYPE>0</EPHEMERIS_TYPE><CLASSIFICATION_TYPE>U</CLASSIFICATION_TYPE><NORAD_CAT_ID>49207</NORAD_CAT_ID><ELEMENT_SET_NO>999</ELEMENT_SET_NO><REV_AT_EPOCH>15082</REV_AT_EPOCH><BSTAR>.16974E-3</BSTAR><MEAN_MOTION_DOT>.8E-6</MEAN_MOTION_DOT><MEAN_MOTION_DDOT>0</MEAN_MOTION_DDOT></tleParameters></data></segment></body></omm>
<omm id="CCSDS_OMM_VERS" version="2.0">
<header><CREATION_DATE/><ORIGINATOR/></header><body><segment><metadata><OBJECT_NAME>ONEWEB-0342</OBJECT_NAME><OBJECT_ID>2021-083Y</OBJECT_ID><CENTER_NAME>EARTH</CENTER_NAME><REF_FRAME>TEME</REF_FRAME><TIME_SYSTEM>UTC</TIME_SYSTEM><MEAN_ELEMENT_THEORY>SGP4</MEAN_ELEMENT_THEORY></metadata><data><meanElements><EPOCH>2024-10-24T18:01:29.468928</EPOCH><MEAN_MOTION>13.20771207</MEAN_MOTION><ECCENTRICITY>.0001875</ECCENTRICITY><INCLINATION>87.9286</INCLINATION><RA_OF_ASC_NODE>33.9017</RA_OF_ASC_NODE><ARG_OF_PERICENTER>99.6875</ARG_OF_PERICENTER><MEAN_ANOMALY>260.4470</MEAN_ANOMALY></meanElements><tleParameters><EPHEMERIS_TYPE>0</EPHEMERIS_TYPE><CLASSIFICATION_TYPE>U</CLASSIFICATION_TYPE><NORAD_CAT_ID>49208</NORAD_CAT_ID><ELEMENT_SET_NO>999</ELEMENT_SET_NO><REV_AT_EPOCH>15882</REV_AT_EPOCH><BSTAR>.10168E-3</BSTAR><MEAN_MOTION_DOT>.54E-6</MEAN_MOTION_DOT><MEAN_MOTION_DDOT>0</MEAN_MOTION_DDOT></tleParameters></data></segment></body></omm>
<omm id="CCSDS_OMM_VERS" version="2.0">
<header><CREATION_DATE/><ORIGINATOR/></header><body><segment><metadata><OBJECT_NAME>ONEWEB-0343</OBJECT_NAME><OBJECT_ID>2021-083Z</OBJECT_ID><CENTER_NAME>EARTH</CENTER_NAME><REF_FRAME>TEME</REF_FRAME><TIME_SYSTEM>UTC</TIME_SYSTEM><MEAN_ELEMENT_THEORY>SGP4</MEAN_ELEMENT_THEORY></metadata><data><meanElements><EPOCH>2024-10-24T11:58:34.063968</EPOCH><MEAN_MOTION>13.18683179</MEAN_MOTION><ECCENTRICITY>.0001793</ECCENTRICITY><INCLINATION>87.9054</INCLINATION><RA_OF_ASC_NODE>95.0053</RA_OF_ASC_NODE><ARG_OF_PERICENTER>68.9753</ARG_OF_PERICENTER><MEAN_ANOMALY>291.1571</MEAN_ANOMALY></meanElements><tleParameters><EPHEMERIS_TYPE>0</EPHEMERIS_TYPE><CLASSIFICATION_TYPE>U</CLASSIFICATION_TYPE><NORAD_CAT_ID>49209</NORAD_CAT_ID><ELEMENT_SET_NO>999</ELEMENT_SET_NO><REV_AT_EPOCH>15087</REV_AT_EPOCH><BSTAR>.13256E-3</BSTAR><MEAN_MOTION_DOT>.65E-6</MEAN_MOTION_DOT><MEAN_MOTION_DDOT>0</MEAN_MOTION_DDOT></tleParameters></data></segment></body></omm>
<omm id="CCSDS_OMM_VERS" version="2.0">
<header><CREATION_DATE/><ORIGINATOR/></header><body><segment><metadata><OBJECT_NAME>ONEWEB-0344</OBJECT_NAME><OBJECT_ID>2021-083AA</OBJECT_ID><CENTER_NAME>EARTH</CENTER_NAME><REF_FRAME>TEME</REF_FRAME><TIME_SYSTEM>UTC</TIME_SYSTEM><MEAN_ELEMENT_THEORY>SGP4</MEAN_ELEMENT_THEORY></metadata><data><meanElements><EPOCH>2024-10-24T10:22:52.821984</EPOCH><MEAN_MOTION>13.13469342</MEAN_MOTION><ECCENTRICITY>.0001229</ECCENTRICITY><INCLINATION>87.8891</INCLINATION><RA_OF_ASC_NODE>79.7630</RA_OF_ASC_NODE><ARG_OF_PERICENTER>84.0096</ARG_OF_PERICENTER><MEAN_ANOMALY>276.1174</MEAN_ANOMALY></meanElements><tleParameters><EPHEMERIS_TYPE>0</EPHEMERIS_TYPE><CLASSIFICATION_TYPE>U</CLASSIFICATION_TYPE><NORAD_CAT_ID>49210</NORAD_CAT_ID><ELEMENT_SET_NO>999</ELEMENT_SET_NO><REV_AT_EPOCH>15203</REV_AT_EPOCH><BSTAR>-.57891E-3</BSTAR><MEAN_MOTION_DOT>-.199E-5</MEAN_MOTION_DOT><MEAN_MOTION_DDOT>0</MEAN_MOTION_DDOT></tleParameters></data></segment></body></omm>
<omm id="CCSDS_OMM_VERS" version="2.0">
<header><CREATION_DATE/><ORIGINATOR/></header><body><segment><metadata><OBJECT_NAME>ONEWEB-0345</OBJECT_NAME><OBJECT_ID>2021-083AB</OBJECT_ID><CENTER_NAME>EARTH</CENTER_NAME><REF_FRAME>TEME</REF_FRAME><TIME_SYSTEM>UTC</TIME_SYSTEM><MEAN_ELEMENT_THEORY>SGP4</MEAN_ELEMENT_THEORY></metadata><data><meanElements><EPOCH>2024-10-24T18:06:45.408672</EPOCH><MEAN_MOTION>13.13486148</MEAN_MOTION><ECCENTRICITY>.0001166</ECCENTRICITY><INCLINATION>87.8887</INCLINATION><RA_OF_ASC_NODE>79.6703</RA_OF_ASC_NODE><ARG_OF_PERICENTER>77.3815</ARG_OF_PERICENTER><MEAN_ANOMALY>282.7445</MEAN_ANOMALY></meanElements><tleParameters><EPHEMERIS_TYPE>0</EPHEMERIS_TYPE><CLASSIFICATION_TYPE>U</CLASSIFICATION_TYPE><NORAD_CAT_ID>49211</NORAD_CAT_ID><ELEMENT_SET_NO>999</ELEMENT_SET_NO><REV_AT_EPOCH>15208</REV_AT_EPOCH><BSTAR>-.87103E-2</BSTAR><MEAN_MOTION_DOT>-.3168E-4</MEAN_MOTION_DOT><MEAN_MOTION_DDOT>0</MEAN_MOTION_DDOT></tleParameters></data></segment></body></omm>
<omm id="CCSDS_OMM_VERS" version="2.0">
<header><CREATION_DATE/><ORIGINATOR/></header><body><segment><metadata><OBJECT_NAME>ONEWEB-0346</OBJECT_NAME><OBJECT_ID>2021-083AC</OBJECT_ID><CENTER_NAME>EARTH</CENTER_NAME><REF_FRAME>TEME</REF_FRAME><TIME_SYSTEM>UTC</TIME_SYSTEM><MEAN_ELEMENT_THEORY>SGP4</MEAN_ELEMENT_THEORY></metadata><data><meanElements><EPOCH>2024-10-24T12:12:12.865536</EPOCH><MEAN_MOTION>13.18683246</MEAN_MOTION><ECCENTRICITY>.0001292</ECCENTRICITY><INCLINATION>87.9062</INCLINATION><RA_OF_ASC_NODE>95.0128</RA_OF_ASC_NODE><ARG_OF_PERICENTER>101.3920</ARG_OF_PERICENTER><MEAN_ANOMALY>258.7358</MEAN_ANOMALY></meanElements><tleParameters><EPHEMERIS_TYPE>0</EPHEMERIS_TYPE><CLASSIFICATION_TYPE>U</CLASSIFICATION_TYPE><NORAD_CAT_ID>49212</NORAD_CAT_ID><ELEMENT_SET_NO>999</ELEMENT_SET_NO><REV_AT_EPOCH>15081</REV_AT_EPOCH><BSTAR>.13744E-3</BSTAR><MEAN_MOTION_DOT>.67E-6</MEAN_MOTION_DOT><MEAN_MOTION_DDOT>0</MEAN_MOTION_DDOT></tleParameters></data></segment></body></omm>
<omm id="CCSDS_OMM_VERS" version="2.0">
<header><CREATION_DATE/><ORIGINATOR/></header><body><segment><metadata><OBJECT_NAME>ONEWEB-0348</OBJECT_NAME><OBJECT_ID>2021-083AD</OBJECT_ID><CENTER_NAME>EARTH</CENTER_NAME><REF_FRAME>TEME</REF_FRAME><TIME_SYSTEM>UTC</TIME_SYSTEM><MEAN_ELEMENT_THEORY>SGP4</MEAN_ELEMENT_THEORY></metadata><data><meanElements><EPOCH>2024-10-24T17:47:51.698976</EPOCH><MEAN_MOTION>13.20771985</MEAN_MOTION><ECCENTRICITY>.0001067</ECCENTRICITY><INCLINATION>87.9295</INCLINATION><RA_OF_ASC_NODE>33.8879</RA_OF_ASC_NODE><ARG_OF_PERICENTER>107.4266</ARG_OF_PERICENTER><MEAN_ANOMALY>252.6983</MEAN_ANOMALY></meanElements><tleParameters><EPHEMERIS_TYPE>0</EPHEMERIS_TYPE><CLASSIFICATION_TYPE>U</CLASSIFICATION_TYPE><NORAD_CAT_ID>49213</NORAD_CAT_ID><ELEMENT_SET_NO>999</ELEMENT_SET_NO><REV_AT_EPOCH>15755</REV_AT_EPOCH><BSTAR>-.93142E-4</BSTAR><MEAN_MOTION_DOT>-.25E-6</MEAN_MOTION_DOT><MEAN_MOTION_DDOT>0</MEAN_MOTION_DDOT></tleParameters></data></segment></body></omm>

</ndm>
