ONEWEB-0340             
1 49206U 21083W   24298.87521527  .00000064  00000+0  13032-3 0  9998
2 49206  87.9064  94.9183 0001442  93.0408 267.0889 13.18688129150852
ONEWEB-0341             
1 49207U 21083X   24298.50376388  .00000080  00000+0  16974-3 0  9998
2 49207  87.9061  95.0048 0001448  64.2351 295.8930 13.18686337150827
ONEWEB-0342             
1 49208U 21083Y   24298.75103552  .00000054  00000+0  10168-3 0  9997
2 49208  87.9286  33.9017 0001875  99.6875 260.4470 13.20771207157526
ONEWEB-0343             
1 49209U 21083Z   24298.49900537  .00000065  00000+0  13256-3 0  9990
2 49209  87.9054  95.0053 0001793  68.9753 291.1571 13.18683179150873
ONEWEB-0344             
1 49210U 21083AA  24298.43255581 -.00000199  00000+0 -57891-3 0  9991
2 49210  87.8891  79.7630 0001229  84.0096 276.1174 13.13469342152037
ONEWEB-0345             
1 49211U 21083AB  24298.75469223 -.00003168  00000+0 -87103-2 0  9994
2 49211  87.8887  79.6703 0001166  77.3815 282.7445 13.13486148152089
ONEWEB-0346             
1 49212U 21083AC  24298.50848224  .00000067  00000+0  13744-3 0  9994
2 49212  87.9062  95.0128 0001292 101.3920 258.7358 13.18683246150812
ONEWEB-0348             
1 49213U 21083AD  24298.74157059 -.00000025  00000+0 -93142-4 0  9997
2 49213  87.9295  33.8879 0001067 107.4266 252.6983 13.20771985157550
